satname,norad_id,inclination_deg,eccentricity,mean_motion_rev_per_day,perigee_km,apogee_km,l1,l2
STARLINK-1417,45693,53.0477,0.000604,15.15626769,514.9104818566593,523.2423156423501,1 45693U 20035AN  26135.19701956  .00011915  00000+0  63438-3 0  9995,2 45693  53.0477 112.1047 0006040  63.4706 296.6906 15.15626769328972
STARLINK-1420,45695,53.0468,0.0006674,15.65609049,366.98301172406264,375.99241078864816,1 45695U 20035AQ  26135.16576497  .00030143  00000+0  29811-3 0  9995,2 45695  53.0468  58.4649 0006674  64.1208 296.0494 15.65609049329730
STARLINK-1422,45696,53.1571,0.0003657,15.33011683,464.32951924699137,469.335930103618,1 45696U 20035AR  26135.29347643  .00027648  00000+0  86322-3 0  9995,2 45696  53.1571  99.8033 0003657  73.4213 286.7190 15.33011683329173
STARLINK-1351,45697,53.045,0.0006417,15.63864545,372.1718325074826,380.84074170215354,1 45697U 20035AS  26135.16280983  .00067507  00000+0  70503-3 0  9997,2 45697  53.0450  58.6365 0006417  73.0590 287.1127 15.63864545329734
STARLINK-1400,45700,53.044,0.0005179,15.61388885,380.1423578190406,387.1462108733667,1 45700U 20035AV  26135.27689063  .00059235  00000+0  68288-3 0  9992,2 45700  53.0440  60.3241 0005179  36.4236 323.7129 15.61388885329718
STARLINK-1403,45701,53.1555,0.0003023,15.3200162,467.77088545999504,471.9111729764609,1 45701U 20035AW  26135.09470371  .00030162  00000+0  97057-3 0  9997,2 45701  53.1555  88.1021 0003023  85.8105 274.3242 15.32001620329310
STARLINK-1407,45703,53.0299,0.0002651,15.70120397,356.7667106930239,360.3385035227129,1 45703U 20035AY  26134.63298325  .00039292  00000+0  32206-3 0  9993,2 45703  53.0299 351.6210 0002651 358.0747   2.0258 15.70120397330621
STARLINK-1411,45706,53.0354,0.0002019,15.79682336,329.98532957467523,332.69461637636323,1 45706U 20035BB  26135.00002315  .00060738  00000+0  32630-3 0  9990,2 45706  53.0354  13.4123 0002019 155.6169 114.7624 15.79682336  5890
STARLINK-1423,45710,53.0444,0.0007577,15.66513201,363.7780964009007,374.00254160011445,1 45710U 20035BF  26135.08300456  .00036306  00000+0  34487-3 0  9996,2 45710  53.0444  58.4794 0007577  36.3521 323.8007 15.66513201329717
STARLINK-1433,45711,53.0444,0.000759,15.66132635,364.8614577217486,375.105104308328,1 45711U 20035BG  26135.25353243  .00032185  00000+0  31119-3 0  9998,2 45711  53.0444  56.1681 0007590  41.7626 318.3967 15.66132635329766
STARLINK-1434,45712,53.0518,0.0003835,15.3243507,465.92396140372966,471.1753700763529,1 45712U 20035BH  26135.20752900  .00027767  00000+0  88260-3 0  9996,2 45712  53.0518  70.4907 0003835  40.3092 319.8193 15.32435070329577
STARLINK-1465,45731,53.0461,0.0001481,15.60374788,385.5717951214592,387.5755024156251,1 45731U 20038B   26134.38354217  .00041904  00000+0  50536-3 0  9991,2 45731  53.0461 265.4175 0001481 252.9589 107.1261 15.60374788326609
STARLINK-1471,45735,53.0439,0.0002879,15.52325999,407.98248966399296,411.89106254427315,1 45735U 20038F   26135.28681182  .00012307  00000+0  20593-3 0  9994,2 45735  53.0439 182.0806 0002879  59.4093 300.7200 15.52325999327869
STARLINK-1480,45741,53.0496,0.0004673,15.61911893,378.97566493088834,385.2938148990115,1 45741U 20038M   26134.74972187  .00062749  00000+0  70835-3 0  9998,2 45741  53.0496 257.2935 0004673 308.4811  51.5782 15.61911893326764
STARLINK-1500,45744,53.0369,0.0002456,15.38105656,450.0339575395801,453.3887790580875,1 45744U 20038Q   26135.28196154  .00012061  00000+0  32663-3 0  9992,2 45744  53.0369 239.5295 0002456  95.7268 264.4015 15.38105656327050
STARLINK-1504,45746,53.0201,0.0003295,15.5748441,392.708628764437,397.1720867431977,1 45746U 20038S   26135.31712168  .00017365  00000+0  23813-3 0  9996,2 45746  53.0201 179.6389 0003295  35.4486 324.6743 15.57484410327887
STARLINK-1506,45747,53.074,0.0003877,15.27898442,479.4360195173849,484.7554439775822,1 45747U 20038T   26134.63027448  .00004548  00000+0  17742-3 0  9994,2 45747  53.0740 256.9230 0003877 103.8165 256.3265 15.27898442326767
STARLINK-1464,45751,53.0468,0.0002126,15.52358372,408.3992786825256,411.2855275247257,1 45751U 20038X   26134.61329609  .00046321  00000+0  75018-3 0  9996,2 45751  53.0468 249.2168 0002126 324.7856  35.3012 15.52358372326868
STARLINK-1477,45754,53.0493,0.0001343,15.1780309,511.55630808271235,513.4071282704153,1 45754U 20038AA  26134.75322624  .00017748  00000+0  88041-3 0  9995,2 45754  53.0493 271.8916 0001343 171.6774 188.4242 15.17803090326553
STARLINK-1478,45755,53.046,0.0002826,15.65720408,369.2603174884389,373.0750244884821,1 45755U 20038AB  26135.28897281  .00028956  00000+0  28558-3 0  9991,2 45755  53.0460 233.0541 0002826 351.3789   8.7176 15.65720408327131
STARLINK-1493,45759,53.0475,0.0005536,15.61365771,379.9676580678688,387.4543761924351,1 45759U 20038AF  26135.31853460  .00055240  00000+0  63806-3 0  9991,2 45759  53.0475 241.9389 0005536 302.7196  57.3283 15.61365771327012
STARLINK-1494,45760,53.0405,0.0007248,15.93021406,288.99739235288143,298.66908040753697,1 45760U 20038AG  26135.25002315  .00122186  16802-4  34940-3 0  9994,2 45760  53.0405 176.4326 0007248   1.0731 312.2732 15.93021406  5919
STARLINK-1502,45764,53.0472,0.0005663,15.57740782,390.36202529860566,398.03237101143714,1 45764U 20038AL  26135.31590038  .00050534  00000+0  67073-3 0  9997,2 45764  53.0472 245.1395 0005663 271.9602  88.0761 15.57740782326989
STARLINK-1470,45772,53.0441,0.0002721,15.33525712,463.4409428488125,467.1651429201511,1 45772U 20038AU  26135.26480283  .00021263  00000+0  65642-3 0  9997,2 45772  53.0441 223.9379 0002721 313.1498  46.9275 15.33525712327278
STARLINK-1482,45773,53.1572,0.000277,15.35840681,456.53085270423617,460.31830781970166,1 45773U 20038AV  26135.31235171  .00025318  00000+0  72400-3 0  9993,2 45773  53.1572 240.2571 0002770 301.7727  58.3006 15.35840681327066
STARLINK-1496,45780,53.0463,0.0007037,15.59258534,385.0391805785739,394.56437761627603,1 45780U 20038BC  26134.50389553  .00035255  00000+0  44457-3 0  9997,2 45780  53.0463 220.1604 0007037 357.4968   2.6008 15.59258534327242
STARLINK-1513,45786,53.1575,7.5e-05,15.31692764,470.2478980576261,471.275232842444,1 45786U 20038BJ  26135.28188952  .00000359  00000+0  23337-4 0  9991,2 45786  53.1575 241.5134 0000750 103.3013 256.8072 15.31692764327041
STARLINK-1522,46027,53.0629,0.0002511,15.12118977,528.0044159950949,531.4735513140859,1 46027U 20055A   26135.30449465  .00008424  00000+0  49992-3 0  9996,2 46027  53.0629 185.5264 0002511 342.4926  17.5978 15.12118977318951
STARLINK-1523,46028,53.1601,0.0001245,15.30197178,474.3702520339257,476.07673879728463,1 46028U 20055B   26135.27396218 -.00000015  00000+0  11607-4 0  9992,2 46028  53.1601 177.4280 0001245  98.7070 261.4072 15.30197178319096
STARLINK-1526,46029,53.1603,0.0001294,15.30197893,474.3345359768973,476.10818512060723,1 46029U 20055C   26135.26764154  .00000662  00000+0  34486-4 0  9997,2 46029  53.1603 177.4687 0001294 113.1806 246.9331 15.30197893319082
STARLINK-1555,46032,53.1599,0.000124,15.30202652,474.35733636205714,476.05696571151475,1 46032U 20055F   26134.40273854  .00001293  00000+0  55783-4 0  9992,2 46032  53.1599 181.4664 0001240  80.4114 279.7027 15.30202652318950
STARLINK-1556,46033,53.1587,0.0001088,15.30181098,474.52585711951906,476.0171588108533,1 46033U 20055G   26135.30030430 -.00000219  00000+0  47177-5 0  9991,2 46033  53.1587 177.3122 0001088  95.6910 264.4215 15.30181098319066
STARLINK-1557,46034,53.1593,0.0001147,15.30186653,474.46883739179157,476.0410054985714,1 46034U 20055H   26135.30345871  .00000563  00000+0  31156-4 0  9990,2 46034  53.1593 177.2945 0001147  88.2228 271.8904 15.30186653319061
STARLINK-1558,46035,53.1601,0.0001254,15.30192357,474.378476923428,476.0973033458731,1 46035U 20055J   26135.31083283  .00000786  00000+0  38676-4 0  9999,2 46035  53.1601 177.2610 0001254  67.8478 292.2655 15.30192357319091
STARLINK-1560,46036,53.1588,0.0001042,15.3018334,474.5506891586838,475.978938096644,1 46036U 20055K   26135.29714290  .00000352  00000+0  24031-4 0  9995,2 46036  53.1588 177.3327 0001042  86.4387 273.6733 15.30183340319095
STARLINK-1569,46039,53.1595,0.0001137,15.30185928,474.47785528922486,476.0363171044255,1 46039U 20055N   26135.31399324  .00000491  00000+0  28694-4 0  9991,2 46039  53.1595 177.2355 0001137  84.4591 275.6540 15.30185928319087
STARLINK-1582,46043,53.1584,0.0001319,15.31700552,469.8349830842344,471.6417164014965,1 46043U 20055S   26135.28916259  .00000477  00000+0  27150-4 0  9994,2 46043  53.1584 177.0092 0001319 103.6022 256.5126 15.31700552319086
STARLINK-1591,46045,53.1568,0.0001154,15.30197219,474.4324952095776,476.0142507836654,1 46045U 20055U   26135.28133876  .00003250  00000+0  12183-3 0  9993,2 46045  53.1568 177.3935 0001154  94.0233 266.0899 15.30197219319063
STARLINK-1524,46047,53.1589,0.0001176,15.31724725,469.86087301149837,471.4717115458434,1 46047U 20055W   26135.25002315 -.00023149  00000+0 -73592-3 0  9997,2 46047  53.1589 164.4907 0001176  78.4352 234.8744 15.31724725  5766
STARLINK-1527,46048,53.1602,0.0001222,15.31696039,469.91486857427935,471.5887369976808,1 46048U 20055X   26135.31907858  .00000651  00000+0  32756-4 0  9990,2 46048  53.1602 164.1504 0001222  93.7793 266.3348 15.31696039319241
STARLINK-1540,46051,53.1588,0.0002144,15.30322289,473.3806804188753,476.31924122767487,1 46051U 20055AA  26135.23953778  .00015722  00000+0  53979-3 0  9991,2 46051  53.1588 164.7241 0002144  33.9531 326.1607 15.30322289319270
STARLINK-1541,46052,53.1589,0.0002165,15.76910667,337.74534368887544,340.6539504570583,1 46052U 20055AB  26135.28799875  .00074578  00000+0  45200-3 0  9995,2 46052  53.1589 156.5791 0002165  71.1129 289.0127 15.76910667319357
STARLINK-1543,46053,53.1597,0.0001509,15.3169618,469.71788521362214,471.78487972745097,1 46053U 20055AC  26135.27713101  .00000692  00000+0  34074-4 0  9997,2 46053  53.1597 164.3599 0001509  75.4342 284.6827 15.31696180319276
